[Satellite]
VERSION=1.1
NAME=COSMOS 1408
NICKNAME=COSMOS 1408
TLE1=1 13552U 82092A   20157.95617423  .00000980  00000-0  34589-4 0  9999
TLE2=2 13552  82.5671 289.7039 0018238 169.8996 190.2614 15.27807763 62620
STATUS=0
